FENGYUN 1C DEB          
1 35243U 99025DRB 26065.70005395  .00025365  00000+0  24597-2 0  9999
2 35243  98.8700 159.6955 0058751 347.5496  12.4264 14.91353364922501
FENGYUN 1C DEB          
1 35244U 99025DRC 26065.57176331  .00000890  00000+0  54900-3 0  9992
2 35244  98.8293 108.8471 0069809 282.0098  77.3252 14.06804621670000
FENGYUN 1C DEB          
1 35245U 99025DRD 26066.48105590  .00003685  00000+0  19428-2 0  9993
2 35245  99.0764 158.2674 0057128  35.0120  25.7368 14.13717708889749
FENGYUN 1C DEB          
1 36147U 99025DRU 26058.91965223  .00001156  00000+0  10856-2 0  9998
2 36147  98.5159 120.9349 0440473  65.1505 299.4764 13.46821034610361
FENGYUN 1C DEB          
1 36148U 99025DRV 26064.78561159  .00004854  00000+0  31632-2 0  9994
2 36148  98.4189 272.3273 0274672 121.8358 240.9856 13.85958661913947
FENGYUN 1C DEB          
1 36152U 99025DRZ 26066.33736177  .00002483  00000+0  12249-2 0  9995
2 36152  98.7462 109.8646 0052497 330.7546  29.0692 14.17666919653556
FENGYUN 1C DEB          
1 36153U 99025DSA 26066.48084399  .00011062  00000+0  27678-2 0  9999
2 36153  98.5859 163.3792 0033184 152.2036 208.0940 14.51292830661925
FENGYUN 1C DEB          
1 36160U 99025DSH 26052.32311129  .00000376  00000+0  20349-3 0  9994
2 36160  98.1410 252.6397 0134319 308.8659  50.0593 14.13297206610492
FENGYUN 1C DEB          
1 36163U 99025DSL 26066.06182451  .00019150  00000+0  37311-2 0  9993
2 36163  99.0786 283.2277 0035684 179.1384 180.9883 14.62662341904184
FENGYUN 1C DEB          
1 36167U 99025DSQ 26065.59117310  .00005923  00000+0  14939-2 0  9990
2 36167  98.8124 341.5425 0069816 352.4050   7.6080 14.50013226684946
FENGYUN 1C DEB          
1 36173U 99025DSW 26058.58949908  .00001063  00000+0  41953-3 0  9992
2 36173  98.2237  15.8966 0146260 319.7593  39.2833 14.25341326601853
FENGYUN 1C DEB          
1 36180U 99025DTD 26059.95884010  .00001734  00000+0  65470-3 0  9999
2 36180  98.4446 125.2406 0211183 163.0548 197.7826 14.20983269716949
FENGYUN 1C DEB          
1 36182U 99025DTF 26066.10365584  .00004236  00000+0  14836-2 0  9995
2 36182  99.0929   3.1010 0019059 190.9552 169.1220 14.35569647891672
FENGYUN 1C DEB          
1 36188U 99025DTM 26066.25326921  .00017571  00000+0  33535-2 0  9992
2 36188  98.5765 174.9178 0044670  46.7149 313.7765 14.63373726892875
FENGYUN 1C DEB          
1 36198U 99025DTX 26062.50620449  .00002962  00000+0  16829-2 0  9994
2 36198  98.6137  93.2460 0095730 244.6555 114.4677 14.08349473647248
FENGYUN 1C DEB          
1 36199U 99025DTY 26066.28556343  .00000784  00000+0  30676-3 0  9992
2 36199  98.2849  88.3629 0091941 175.8760 184.3202 14.29798950661887
