[{"OBJECT_NAME":"FENGYUN 1C DEB","OBJECT_ID":"1999-025DRB","EPOCH":"2026-03-06T16:48:04.661280","MEAN_MOTION":14.91353364,"ECCENTRICITY":0.00587511,"INCLINATION":98.87,"RA_OF_ASC_NODE":159.6955,"ARG_OF_PERICENTER":347.5496,"MEAN_ANOMALY":12.4264,"EPHEMERIS_TYPE":0,"CLASSIFICATION_TYPE":"U","NORAD_CAT_ID":35243,"ELEMENT_SET_NO":999,"REV_AT_EPOCH":92250,"BSTAR":0.0024596984,"MEAN_MOTION_DOT":0.00025365,"MEAN_MOTION_DDOT":0},{"OBJECT_NAME":"FENGYUN 1C DEB","OBJECT_ID":"1999-025DRC","EPOCH":"2026-03-06T13:43:20.349984","MEAN_MOTION":14.06804621,"ECCENTRICITY":0.00698099,"INCLINATION":98.8293,"RA_OF_ASC_NODE":108.8471,"ARG_OF_PERICENTER":282.0098,"MEAN_ANOMALY":77.3252,"EPHEMERIS_TYPE":0,"CLASSIFICATION_TYPE":"U","NORAD_CAT_ID":35244,"ELEMENT_SET_NO":999,"REV_AT_EPOCH":67000,"BSTAR":0.00054900212,"MEAN_MOTION_DOT":8.9e-6,"MEAN_MOTION_DDOT":0},{"OBJECT_NAME":"FENGYUN 1C DEB","OBJECT_ID":"1999-025DRD","EPOCH":"2026-03-07T11:32:43.229760","MEAN_MOTION":14.13717708,"ECCENTRICITY":0.00571289,"INCLINATION":99.0764,"RA_OF_ASC_NODE":158.2674,"ARG_OF_PERICENTER":35.012,"MEAN_ANOMALY":25.7368,"EPHEMERIS_TYPE":0,"CLASSIFICATION_TYPE":"U","NORAD_CAT_ID":35245,"ELEMENT_SET_NO":999,"REV_AT_EPOCH":88974,"BSTAR":0.0019428187,"MEAN_MOTION_DOT":3.685e-5,"MEAN_MOTION_DDOT":0},{"OBJECT_NAME":"FENGYUN 1C DEB","OBJECT_ID":"1999-025DRU","EPOCH":"2026-02-27T22:04:17.952672","MEAN_MOTION":13.46821034,"ECCENTRICITY":0.0440473,"INCLINATION":98.5159,"RA_OF_ASC_NODE":120.9349,"ARG_OF_PERICENTER":65.1505,"MEAN_ANOMALY":299.4764,"EPHEMERIS_TYPE":0,"CLASSIFICATION_TYPE":"U","NORAD_CAT_ID":36147,"ELEMENT_SET_NO":999,"REV_AT_EPOCH":61036,"BSTAR":0.0010856,"MEAN_MOTION_DOT":1.156e-5,"MEAN_MOTION_DDOT":0},{"OBJECT_NAME":"FENGYUN 1C DEB","OBJECT_ID":"1999-025DRV","EPOCH":"2026-03-05T18:51:16.841376","MEAN_MOTION":13.85958661,"ECCENTRICITY":0.02746722,"INCLINATION":98.4189,"RA_OF_ASC_NODE":272.3273,"ARG_OF_PERICENTER":121.8358,"MEAN_ANOMALY":240.9856,"EPHEMERIS_TYPE":0,"CLASSIFICATION_TYPE":"U","NORAD_CAT_ID":36148,"ELEMENT_SET_NO":999,"REV_AT_EPOCH":91394,"BSTAR":0.0031632368,"MEAN_MOTION_DOT":4.854e-5,"MEAN_MOTION_DDOT":0},{"OBJECT_NAME":"FENGYUN 1C DEB","OBJECT_ID":"1999-025DRZ","EPOCH":"2026-03-07T08:05:48.056928","MEAN_MOTION":14.17666919,"ECCENTRICITY":0.00524979,"INCLINATION":98.7462,"RA_OF_ASC_NODE":109.8646,"ARG_OF_PERICENTER":330.7546,"MEAN_ANOMALY":29.0692,"EPHEMERIS_TYPE":0,"CLASSIFICATION_TYPE":"U","NORAD_CAT_ID":36152,"ELEMENT_SET_NO":999,"REV_AT_EPOCH":65355,"BSTAR":0.0012248966,"MEAN_MOTION_DOT":2.483e-5,"MEAN_MOTION_DDOT":0},{"OBJECT_NAME":"FENGYUN 1C DEB","OBJECT_ID":"1999-025DSA","EPOCH":"2026-03-07T11:32:24.920736","MEAN_MOTION":14.5129283,"ECCENTRICITY":0.00331845,"INCLINATION":98.5859,"RA_OF_ASC_NODE":163.3792,"ARG_OF_PERICENTER":152.2036,"MEAN_ANOMALY":208.094,"EPHEMERIS_TYPE":0,"CLASSIFICATION_TYPE":"U","NORAD_CAT_ID":36153,"ELEMENT_SET_NO":999,"REV_AT_EPOCH":66192,"BSTAR":0.0027678054,"MEAN_MOTION_DOT":0.00011062,"MEAN_MOTION_DDOT":0},{"OBJECT_NAME":"FENGYUN 1C DEB","OBJECT_ID":"1999-025DSH","EPOCH":"2026-02-21T07:45:16.815456","MEAN_MOTION":14.13297206,"ECCENTRICITY":0.01343198,"INCLINATION":98.141,"RA_OF_ASC_NODE":252.6397,"ARG_OF_PERICENTER":308.8659,"MEAN_ANOMALY":50.0593,"EPHEMERIS_TYPE":0,"CLASSIFICATION_TYPE":"U","NORAD_CAT_ID":36160,"ELEMENT_SET_NO":999,"REV_AT_EPOCH":61049,"BSTAR":0.00020349178,"MEAN_MOTION_DOT":3.76e-6,"MEAN_MOTION_DDOT":0},{"OBJECT_NAME":"FENGYUN 1C DEB","OBJECT_ID":"1999-025DSL","EPOCH":"2026-03-07T01:29:01.637664","MEAN_MOTION":14.62662341,"ECCENTRICITY":0.00356843,"INCLINATION":99.0786,"RA_OF_ASC_NODE":283.2277,"ARG_OF_PERICENTER":179.1384,"MEAN_ANOMALY":180.9883,"EPHEMERIS_TYPE":0,"CLASSIFICATION_TYPE":"U","NORAD_CAT_ID":36163,"ELEMENT_SET_NO":999,"REV_AT_EPOCH":90418,"BSTAR":0.0037311384,"MEAN_MOTION_DOT":0.0001915,"MEAN_MOTION_DDOT":0},{"OBJECT_NAME":"FENGYUN 1C DEB","OBJECT_ID":"1999-025DSQ","EPOCH":"2026-03-06T14:11:17.355840","MEAN_MOTION":14.50013226,"ECCENTRICITY":0.00698169,"INCLINATION":98.8124,"RA_OF_ASC_NODE":341.5425,"ARG_OF_PERICENTER":352.405,"MEAN_ANOMALY":7.608,"EPHEMERIS_TYPE":0,"CLASSIFICATION_TYPE":"U","NORAD_CAT_ID":36167,"ELEMENT_SET_NO":999,"REV_AT_EPOCH":68494,"BSTAR":0.0014938543,"MEAN_MOTION_DOT":5.923e-5,"MEAN_MOTION_DDOT":0},{"OBJECT_NAME":"FENGYUN 1C DEB","OBJECT_ID":"1999-025DSW","EPOCH":"2026-02-27T14:08:52.720512","MEAN_MOTION":14.25341326,"ECCENTRICITY":0.01462609,"INCLINATION":98.2237,"RA_OF_ASC_NODE":15.8966,"ARG_OF_PERICENTER":319.7593,"MEAN_ANOMALY":39.2833,"EPHEMERIS_TYPE":0,"CLASSIFICATION_TYPE":"U","NORAD_CAT_ID":36173,"ELEMENT_SET_NO":999,"REV_AT_EPOCH":60185,"BSTAR":0.00041952854,"MEAN_MOTION_DOT":1.063e-5,"MEAN_MOTION_DDOT":0},{"OBJECT_NAME":"FENGYUN 1C DEB","OBJECT_ID":"1999-025DTD","EPOCH":"2026-02-28T23:00:43.784640","MEAN_MOTION":14.20983269,"ECCENTRICITY":0.0211183,"INCLINATION":98.4446,"RA_OF_ASC_NODE":125.2406,"ARG_OF_PERICENTER":163.0548,"MEAN_ANOMALY":197.7826,"EPHEMERIS_TYPE":0,"CLASSIFICATION_TYPE":"U","NORAD_CAT_ID":36180,"ELEMENT_SET_NO":999,"REV_AT_EPOCH":71694,"BSTAR":0.0006547,"MEAN_MOTION_DOT":1.734e-5,"MEAN_MOTION_DDOT":0},{"OBJECT_NAME":"FENGYUN 1C DEB","OBJECT_ID":"1999-025DTF","EPOCH":"2026-03-07T02:29:15.864576","MEAN_MOTION":14.35569647,"ECCENTRICITY":0.00190591,"INCLINATION":99.0929,"RA_OF_ASC_NODE":3.101,"ARG_OF_PERICENTER":190.9552,"MEAN_ANOMALY":169.122,"EPHEMERIS_TYPE":0,"CLASSIFICATION_TYPE":"U","NORAD_CAT_ID":36182,"ELEMENT_SET_NO":999,"REV_AT_EPOCH":89167,"BSTAR":0.0014835997,"MEAN_MOTION_DOT":4.236e-5,"MEAN_MOTION_DDOT":0},{"OBJECT_NAME":"FENGYUN 1C DEB","OBJECT_ID":"1999-025DTM","EPOCH":"2026-03-07T06:04:42.459744","MEAN_MOTION":14.63373726,"ECCENTRICITY":0.004467,"INCLINATION":98.5765,"RA_OF_ASC_NODE":174.9178,"ARG_OF_PERICENTER":46.7149,"MEAN_ANOMALY":313.7765,"EPHEMERIS_TYPE":0,"CLASSIFICATION_TYPE":"U","NORAD_CAT_ID":36188,"ELEMENT_SET_NO":999,"REV_AT_EPOCH":89287,"BSTAR":0.0033535,"MEAN_MOTION_DOT":0.00017571,"MEAN_MOTION_DDOT":0},{"OBJECT_NAME":"FENGYUN 1C DEB","OBJECT_ID":"1999-025DTX","EPOCH":"2026-03-03T12:08:56.067936","MEAN_MOTION":14.08349473,"ECCENTRICITY":0.009573,"INCLINATION":98.6137,"RA_OF_ASC_NODE":93.246,"ARG_OF_PERICENTER":244.6555,"MEAN_ANOMALY":114.4677,"EPHEMERIS_TYPE":0,"CLASSIFICATION_TYPE":"U","NORAD_CAT_ID":36198,"ELEMENT_SET_NO":999,"REV_AT_EPOCH":64724,"BSTAR":0.0016829,"MEAN_MOTION_DOT":2.962e-5,"MEAN_MOTION_DDOT":0},{"OBJECT_NAME":"FENGYUN 1C DEB","OBJECT_ID":"1999-025DTY","EPOCH":"2026-03-07T06:51:12.680352","MEAN_MOTION":14.2979895,"ECCENTRICITY":0.0091941,"INCLINATION":98.2849,"RA_OF_ASC_NODE":88.3629,"ARG_OF_PERICENTER":175.876,"MEAN_ANOMALY":184.3202,"EPHEMERIS_TYPE":0,"CLASSIFICATION_TYPE":"U","NORAD_CAT_ID":36199,"ELEMENT_SET_NO":999,"REV_AT_EPOCH":66188,"BSTAR":0.00030676,"MEAN_MOTION_DOT":7.84e-6,"MEAN_MOTION_DDOT":0}]
